JILIN-1 KUANFU 01       
1 45016U 20003A   26196.16922311  .00001493  00000+0  93497-4 0  9992
2 45016  97.5021 269.5793 0009247 196.9766 163.1156 15.10866958359558
JILIN-1 KUANFU-01B      
1 49003U 21061A   26196.20793390  .00001609  00000+0  10342-3 0  9991
2 49003  97.5213 271.8806 0006031 337.2758  22.8203 15.09809752277573
JILIN-1 KUANFU 01C      
1 52443U 22048A   26196.19981557  .00001261  00000+0  82186-4 0  9991
2 52443  97.5250 272.8626 0017323 220.1687 139.8262 15.09599808231420
JILIN-1 KUANFU 02A      
1 57696U 23127A   26196.21911382  .00002429  00000+0  14993-3 0  9994
2 57696  97.5572 289.6838 0010309 236.7123 123.3120 15.10811565159865
JILIN-01 KUANFU 02B 1   
1 61189U 24169A   26196.16656956  .00001649  00000+0  10816-3 0  9993
2 61189  97.5577 285.2598 0001531 342.0856  18.0318 15.09057366100042
JILIN-01 KUANFU 02B 2   
1 61190U 24169B   26196.21250024  .00001711  00000+0  11218-3 0  9994
2 61190  97.5570 284.6897 0004833 279.4343  80.6339 15.09018248100059
JILIN-01 KUANFU 02B 3   
1 61191U 24169C   26196.22144449  .00001626  00000+0  10653-3 0  9996
2 61191  97.5566 285.1314 0013041 205.7827 154.2753 15.09057018100051
JILIN-01 KUANFU 02B 4   
1 61192U 24169D   26196.19022421  .00002545  00000+0  16448-3 0  9997
2 61192  97.5534 284.6269 0014020 163.8426 196.3252 15.09043677100054
JILIN-01 KUANFU 02B 5   
1 61193U 24169E   26196.17725397  .00001901  00000+0  12381-3 0  9995
2 61193  97.5578 285.4112 0013187 187.4995 172.6038 15.09075633100051
JILIN-01 KUANFU 02B 6   
1 61194U 24169F   26196.20088701  .00002036  00000+0  13238-3 0  9993
2 61194  97.5559 285.3269 0015601 221.3147 138.6903 15.09033976100061
