{"fetched_at":"2026-07-15T17:47:18.006Z","source":"https://celestrak.org/NORAD/elements/gp.php?NAME=JILIN&FORMAT=JSON","constellation":"jilin-1-kuanfu","records":[{"OBJECT_NAME":"JILIN-1 KUANFU 01","OBJECT_ID":"2020-003A","EPOCH":"2026-07-15T04:03:40.876704","CLASSIFICATION_TYPE":"U","MEAN_MOTION":15.10866958,"ECCENTRICITY":0.0009247,"INCLINATION":97.5021,"RA_OF_ASC_NODE":269.5793,"ARG_OF_PERICENTER":196.9766,"MEAN_ANOMALY":163.1156,"EPHEMERIS_TYPE":0,"NORAD_CAT_ID":45016,"ELEMENT_SET_NO":999,"REV_AT_EPOCH":35955,"BSTAR":0.000093497,"MEAN_MOTION_DOT":0.00001493,"MEAN_MOTION_DDOT":0},{"OBJECT_NAME":"JILIN-1 KUANFU-01B","OBJECT_ID":"2021-061A","EPOCH":"2026-07-15T04:59:25.488960","CLASSIFICATION_TYPE":"U","MEAN_MOTION":15.09809752,"ECCENTRICITY":0.0006031,"INCLINATION":97.5213,"RA_OF_ASC_NODE":271.8806,"ARG_OF_PERICENTER":337.2758,"MEAN_ANOMALY":22.8203,"EPHEMERIS_TYPE":0,"NORAD_CAT_ID":49003,"ELEMENT_SET_NO":999,"REV_AT_EPOCH":27757,"BSTAR":0.00010342,"MEAN_MOTION_DOT":0.00001609,"MEAN_MOTION_DDOT":0},{"OBJECT_NAME":"JILIN-1 KUANFU 01C","OBJECT_ID":"2022-048A","EPOCH":"2026-07-15T04:47:44.065248","CLASSIFICATION_TYPE":"U","MEAN_MOTION":15.09599808,"ECCENTRICITY":0.0017323,"INCLINATION":97.525,"RA_OF_ASC_NODE":272.8626,"ARG_OF_PERICENTER":220.1687,"MEAN_ANOMALY":139.8262,"EPHEMERIS_TYPE":0,"NORAD_CAT_ID":52443,"ELEMENT_SET_NO":999,"REV_AT_EPOCH":23142,"BSTAR":0.000082186,"MEAN_MOTION_DOT":0.00001261,"MEAN_MOTION_DDOT":0},{"OBJECT_NAME":"JILIN-1 KUANFU 02A","OBJECT_ID":"2023-127A","EPOCH":"2026-07-15T05:15:31.434048","CLASSIFICATION_TYPE":"U","MEAN_MOTION":15.10811565,"ECCENTRICITY":0.0010309,"INCLINATION":97.5572,"RA_OF_ASC_NODE":289.6838,"ARG_OF_PERICENTER":236.7123,"MEAN_ANOMALY":123.312,"EPHEMERIS_TYPE":0,"NORAD_CAT_ID":57696,"ELEMENT_SET_NO":999,"REV_AT_EPOCH":15986,"BSTAR":0.00014993,"MEAN_MOTION_DOT":0.00002429,"MEAN_MOTION_DDOT":0},{"OBJECT_NAME":"JILIN-01 KUANFU 02B 1","OBJECT_ID":"2024-169A","EPOCH":"2026-07-15T03:59:51.609984","CLASSIFICATION_TYPE":"U","MEAN_MOTION":15.09057366,"ECCENTRICITY":0.0001531,"INCLINATION":97.5577,"RA_OF_ASC_NODE":285.2598,"ARG_OF_PERICENTER":342.0856,"MEAN_ANOMALY":18.0318,"EPHEMERIS_TYPE":0,"NORAD_CAT_ID":61189,"ELEMENT_SET_NO":999,"REV_AT_EPOCH":10004,"BSTAR":0.00010816,"MEAN_MOTION_DOT":0.00001649,"MEAN_MOTION_DDOT":0},{"OBJECT_NAME":"JILIN-01 KUANFU 02B 2","OBJECT_ID":"2024-169B","EPOCH":"2026-07-15T05:06:00.020736","CLASSIFICATION_TYPE":"U","MEAN_MOTION":15.09018248,"ECCENTRICITY":0.0004833,"INCLINATION":97.557,"RA_OF_ASC_NODE":284.6897,"ARG_OF_PERICENTER":279.4343,"MEAN_ANOMALY":80.6339,"EPHEMERIS_TYPE":0,"NORAD_CAT_ID":61190,"ELEMENT_SET_NO":999,"REV_AT_EPOCH":10005,"BSTAR":0.00011218,"MEAN_MOTION_DOT":0.00001711,"MEAN_MOTION_DDOT":0},{"OBJECT_NAME":"JILIN-01 KUANFU 02B 3","OBJECT_ID":"2024-169C","EPOCH":"2026-07-15T05:18:52.803936","CLASSIFICATION_TYPE":"U","MEAN_MOTION":15.09057018,"ECCENTRICITY":0.0013041,"INCLINATION":97.5566,"RA_OF_ASC_NODE":285.1314,"ARG_OF_PERICENTER":205.7827,"MEAN_ANOMALY":154.2753,"EPHEMERIS_TYPE":0,"NORAD_CAT_ID":61191,"ELEMENT_SET_NO":999,"REV_AT_EPOCH":10005,"BSTAR":0.00010653,"MEAN_MOTION_DOT":0.00001626,"MEAN_MOTION_DDOT":0},{"OBJECT_NAME":"JILIN-01 KUANFU 02B 4","OBJECT_ID":"2024-169D","EPOCH":"2026-07-15T04:33:55.371744","CLASSIFICATION_TYPE":"U","MEAN_MOTION":15.09043677,"ECCENTRICITY":0.001402,"INCLINATION":97.5534,"RA_OF_ASC_NODE":284.6269,"ARG_OF_PERICENTER":163.8426,"MEAN_ANOMALY":196.3252,"EPHEMERIS_TYPE":0,"NORAD_CAT_ID":61192,"ELEMENT_SET_NO":999,"REV_AT_EPOCH":10005,"BSTAR":0.00016448,"MEAN_MOTION_DOT":0.00002545,"MEAN_MOTION_DDOT":0},{"OBJECT_NAME":"JILIN-01 KUANFU 02B 5","OBJECT_ID":"2024-169E","EPOCH":"2026-07-15T04:15:14.743008","CLASSIFICATION_TYPE":"U","MEAN_MOTION":15.09075633,"ECCENTRICITY":0.0013187,"INCLINATION":97.5578,"RA_OF_ASC_NODE":285.4112,"ARG_OF_PERICENTER":187.4995,"MEAN_ANOMALY":172.6038,"EPHEMERIS_TYPE":0,"NORAD_CAT_ID":61193,"ELEMENT_SET_NO":999,"REV_AT_EPOCH":10005,"BSTAR":0.00012381,"MEAN_MOTION_DOT":0.00001901,"MEAN_MOTION_DDOT":0},{"OBJECT_NAME":"JILIN-01 KUANFU 02B 6","OBJECT_ID":"2024-169F","EPOCH":"2026-07-15T04:49:16.637664","CLASSIFICATION_TYPE":"U","MEAN_MOTION":15.09033976,"ECCENTRICITY":0.0015601,"INCLINATION":97.5559,"RA_OF_ASC_NODE":285.3269,"ARG_OF_PERICENTER":221.3147,"MEAN_ANOMALY":138.6903,"EPHEMERIS_TYPE":0,"NORAD_CAT_ID":61194,"ELEMENT_SET_NO":999,"REV_AT_EPOCH":10006,"BSTAR":0.00013238,"MEAN_MOTION_DOT":0.00002036,"MEAN_MOTION_DDOT":0}]}
